PROBA-1                 
1 26958U 01049B   23250.00988329  .00003051  00000+0  24683-3 0  9999
2 26958  97.8838 217.1690 0066236 294.4183  65.0138 14.98855952191296
BIRD 2                  
1 26959U 01049C   23249.97535910  .00207342  00000+0  73320-3 0  9999
2 26959  97.7745  26.6463 0004198 215.9771 144.1218 15.88528630216447
CUTE-1 (CO-55)          
1 27844U 03031E   23249.96423591  .00000421  00000+0  20698-3 0  9995
2 27844  98.6803 256.0329 0008625 246.2902 113.7372 14.22864458 47395
CUBESAT XI-IV (CO-57)   
1 27848U 03031J   23250.00378631  .00000352  00000+0  17804-3 0  9998
2 27848  98.6839 256.4554 0008467 263.4396  96.5818 14.22363753 47186
GENESIS 1               
1 29252U 06029A   23249.57562395  .00010421  00000+0  38123-3 0  9996
2 29252  64.5208  38.7741 0014980 209.9850 150.0422 15.28398564946950
GENESIS 2               
1 31789U 07028A   23249.54248062  .00008312  00000+0  30724-3 0  9998
2 31789  64.4939  83.3533 0053710 250.0333 109.5005 15.27009282893884
APRIZESAT 4             
1 35684U 09041D   23250.04847011  .00001016  00000+0  13787-3 0  9993
2 35684  98.2791 283.4731 0045929 359.5660   0.5504 14.80546825761174
APRIZESAT 3             
1 35686U 09041F   23250.09692025  .00002879  00000+0  29479-3 0  9996
2 35686  98.1017 351.8166 0070382 164.0784 196.2668 14.89520763765108
PROBA-2                 
1 36037U 09059B   23249.95383371  .00000321  00000+0  87438-4 0  9990
2 36037  98.2286  73.3247 0013585 166.7315 193.4241 14.53596183734208
APRIZESAT 5             
1 37792U 11044E   23249.99049831  .00001347  00000+0  19522-3 0  9997
2 37792  98.2645 142.2424 0057247  20.5287 339.8204 14.76748228649010
APRIZESAT 6             
1 37793U 11044F   23250.12798781  .00000939  00000+0  15017-3 0  9991
2 37793  98.3410 121.0810 0047289  79.7838  71.1131 14.73585581647773
PROBA-V                 
1 39159U 13021A   23250.04627802  .00000101  00000+0  62607-4 0  9991
2 39159  98.3189 267.3233 0003451 209.3469 150.7517 14.23146894536843
APRIZESAT 7             
1 39416U 13066A   23249.73455491  .00001833  00000+0  21359-3 0  9994
2 39416  97.6281 214.4774 0038821 329.3878  30.5073 14.85894429530278
APRIZESAT 8             
1 39425U 13066K   23249.83522161  .00001769  00000+0  22003-3 0  9999
2 39425  97.6859 207.1217 0050887  20.0547 340.2651 14.82855380529084
BUGSAT-1 (TITA)         
1 40014U 14033E   23249.88398032  .00005624  00000+0  44917-3 0  9995
2 40014  98.1376 272.5126 0034930   3.0531 357.0898 15.00221822502966
SAUDISAT 4              
1 40016U 14033G   23249.94822516  .00001024  00000+0  15170-3 0  9992
2 40016  97.6464  65.4064 0048526 131.0726 229.4692 14.76332473496271
APRIZESAT 9             
1 40018U 14033J   23249.67882230  .00001046  00000+0  17205-3 0  9998
2 40018  97.7647  42.7337 0069162 219.9279 139.6831 14.71068330494230
APRIZESAT 10            
1 40019U 14033K   23249.85736674  .00000806  00000+0  14212-3 0  9997
2 40019  97.8275  33.7561 0081416 272.0271  87.1613 14.68048268493458
TDS 1                   
1 40076U 14037H   23249.98868484  .00005255  00000+0  55924-3 0  9991
2 40076  98.3333 151.4333 0007960  69.0403 291.1664 14.89386227496156
TIANTUO 2               
1 40144U 14053B   23250.02294902  .00014369  00000+0  28341-3 0  9999
2 40144  97.1545 327.4368 0008937  27.2106 332.9611 15.47246117503892
TECHNOSAT               
1 42829U 17042E   23249.97602851  .00002362  00000+0  22585-3 0  9994
2 42829  97.3876  82.5436 0012224 316.1846  43.8404 14.94064691334709
FLYING LAPTOP           
1 42831U 17042G   23250.04328502  .00001517  00000+0  14945-3 0  9997
2 42831  97.3892  82.8572 0012340 317.1941  42.8318 14.93364368334706
HAWK-A                  
1 43765U 18099H   23250.06030204  .00004637  00000+0  37710-3 0  9999
2 43765  97.5671 311.0295 0010880 190.0986 170.0021 14.99996439260016
HAWK-B                  
1 43794U 18099AN  23249.86053777  .00004613  00000+0  37521-3 0  9991
2 43794  97.5671 310.8344 0010812 191.7151 168.3822 14.99995322259979
HAWK-C                  
1 43799U 18099AT  23249.99380113  .00004793  00000+0  38962-3 0  9996
2 43799  97.5671 310.8616 0010782 191.0596 169.0393 14.99996317259996
SALSAT                  
1 46495U 20068K   23249.66382452  .00004899  00000+0  31738-3 0  9994
2 46495  97.7755 198.5974 0014571 195.8803 164.1970 15.08530047161352
HAWK-2C                 
1 47502U 21006CT  23249.91308803  .00012251  00000+0  58699-3 0  9999
2 47502  97.3782 301.9473 0009497 169.5786 190.5647 15.19029297144831
HAWK-2A                 
1 47505U 21006CW  23249.12281615  .00010576  00000+0  50743-3 0  9996
2 47505  97.3780 301.2845 0009342 171.0002 189.1401 15.19022142144717
HAWK-2B                 
1 47508U 21006CZ  23249.12302317  .00010423  00000+0  50016-3 0  9996
2 47508  97.3780 301.1746 0009621 172.9646 187.1726 15.19018074144710
HAWK-3B                 
1 48931U 21059BE  23249.60952452  .00006731  00000+0  29949-3 0  9997
2 48931  97.5948  24.1836 0013740   2.7750 357.3559 15.21736956121667
HAWK-3C                 
1 48948U 21059BX  23249.60923728  .00007071  00000+0  31430-3 0  9995
2 48948  97.6214  26.7602 0014769   5.9681 354.1727 15.21740651121660
HAWK-3A                 
1 48957U 21059CG  23249.34605018  .00007160  00000+0  31828-3 0  9995
2 48957  97.6082  25.2114 0014694   0.9219 359.2041 15.21736416121629
HAWK-4B                 
1 52165U 22033J   23249.22345416  .00009588  00000+0  33628-3 0  9990
2 52165  97.3512 328.7869 0007915 239.5027 120.5433 15.29619539 79623
HAWK-4A                 
1 52167U 22033L   23249.22318168  .00009965  00000+0  34944-3 0  9997
2 52167  97.3464 328.4773 0007358 239.0053 121.0465 15.29620093 79625
HAWK-4C                 
1 52170U 22033P   23249.22304159  .00009852  00000+0  34535-3 0  9997
2 52170  97.3512 328.7718 0009432 226.1541 133.8921 15.29618179 79629
HAWK-5C                 
1 52754U 22057Y   23249.76323479  .00006676  00000+0  33363-3 0  9995
2 52754  97.5611   5.7619 0009905  64.7213 295.5046 15.17751055 70991
HAWK-5B                 
1 52756U 22057AA  23250.09271561  .00006861  00000+0  34269-3 0  9991
2 52756  97.5453   5.0967 0010499  58.9890 301.2373 15.17753104 71044
HAWK-5A                 
1 52757U 22057AB  23250.09249240  .00007111  00000+0  35502-3 0  9991
2 52757  97.5532   5.5907 0010850  61.9997 298.2333 15.17754543 71044
HAWK-6B                 
1 55324U 23011A   23249.80076121  .00004235  00000+0  28115-3 0  9994
2 55324  40.5181  80.0758 0005688 326.6545  33.3901 15.07959545 33911
HAWK-6C                 
1 55326U 23011C   23249.93290182  .00004297  00000+0  28508-3 0  9999
2 55326  40.4869  78.6507 0005802 319.8139  40.2235 15.07956720 33943
HAWK-6A                 
1 55327U 23011D   23249.86655762  .00004308  00000+0  28585-3 0  9999
2 55327  40.5031  79.3843 0005801 315.9146  44.1195 15.07956961 33935
HAWK-7A                 
1 56191U 23054P   23249.51581553  .00006539  00000+0  28592-3 0  9990
2 56191  97.3963 143.3313 0013470  96.2181 264.0590 15.22331066 22550
HAWK-7B                 
1 56193U 23054R   23248.98992950  .00006506  00000+0  28468-3 0  9995
2 56193  97.3829 142.4977 0012343  86.8637 273.4012 15.22323387 22479
HAWK-7C                 
1 56200U 23054Y   23249.18655463  .00006167  00000+0  26966-3 0  9996
2 56200  97.3898 142.8519 0013200  90.9112 269.3637 15.22358351 22507
